VERTECS                 
1 69506U 26132E   26188.68245970  .00001356  00000+0  11087-3 0  9990
2 69506  97.6836 252.1560 0014861 231.7159 128.2729 15.00974254  3849
HORN-R                  
1 69507U 26132F   26187.71885431  .00001557  00000+0  11332-3 0  9992
2 69507  97.6691 251.2744 0019544 230.1940 129.7567 15.05152725  3704
STARLINK-37536          
1 69508U 26133A   26188.75003471 -.00002380  00000+0 -34685-4 0  9999
2 69508  53.1597 220.4514 0001018  67.8117 164.5166 15.49350702  5288
STARLINK-37341          
1 69509U 26133B   26188.75003471 -.00011950  00000+0 -20724-3 0  9991
2 69509  53.1597 220.4719 0001715  94.6372 127.5295 15.49291890  5285
STARLINK-36536          
1 69510U 26133C   26188.75003471 -.02515118  00000+0 -47820-1 0  9994
2 69510  53.1598 219.7261 0001350  58.4785 172.1047 15.51130980  5222
STARLINK-37420          
1 69511U 26133D   26188.75003471 -.01710365  00000+0 -27240-1 0  9999
2 69511  53.1603 219.4947 0000896  85.8344 258.0110 15.55764696  5177
STARLINK-37511          
1 69512U 26133E   26188.75003471 -.02143704  00000+0 -37284-1 0  9997
2 69512  53.1601 219.5119 0001481  74.8802 260.9423 15.53589059  5171
STARLINK-37552          
1 69513U 26133F   26188.58065917  .00032559  00000+0  59002-3 0  9997
2 69513  53.1595 221.2729 0000695 237.9052 122.1889 15.49357053  5241
STARLINK-37607          
1 69514U 26133G   26188.75003471 -.00505968  00000+0 -95860-2 0  9996
2 69514  53.1600 219.5455 0001936  70.5508 248.1368 15.49613468  5179
STARLINK-37232          
1 69515U 26133H   26188.75003471 -.00010034  00000+0 -17256-3 0  9996
2 69515  53.1601 220.1808 0001144  91.7290 271.8146 15.49312730  5170
STARLINK-37323          
1 69516U 26133J   26188.75003471 -.02531160  00000+0 -42587-1 0  9990
2 69516  53.1603 219.3440 0001073  47.2819   8.4571 15.54505838  5174
STARLINK-37357          
1 69517U 26133K   26188.12841330  .00034649  00000+0  62770-3 0  9990
2 69517  53.1588 223.4215 0000895 100.0723 260.0387 15.49335302  5167
STARLINK-37408          
1 69518U 26133L   26188.75003471 -.00012421  00000+0 -21551-3 0  9994
2 69518  53.1598 219.7142 0001246  34.6304 199.1939 15.49321729  5178
STARLINK-37570          
1 69519U 26133M   26188.75003471 -.00011224  00000+0 -19400-3 0  9995
2 69519  53.1601 220.2073 0001030  85.1999 263.4856 15.49314222  5179
STARLINK-37510          
1 69520U 26133N   26188.75003471 -.00008699  00000+0 -14852-3 0  9995
2 69520  53.1601 220.1563 0000617  99.5015 275.1480 15.49312520  5174
STARLINK-37586          
1 69521U 26133P   26188.75003471 -.02626538  00000+0 -46417-1 0  9996
2 69521  53.1597 219.2153 0001209  61.9473  55.8454 15.53301964  5171
STARLINK-37379          
1 69522U 26133Q   26188.75003471 -.00013469  00000+0 -23437-3 0  9997
2 69522  53.1597 219.8463 0001786  78.8584  87.7957 15.49325266  5226
STARLINK-37429          
1 69523U 26133R   26188.00003472  .00078539  00000+0  14060-2 0  9995
2 69523  53.1597 223.8533 0001350  62.6652  29.5785 15.49310165  5106
STARLINK-37352          
1 69524U 26133S   26188.75003471 -.00015773  00000+0 -27600-3 0  9995
2 69524  53.1597 219.8291 0001147  79.6102  94.7963 15.49319523  5227
STARLINK-37490          
1 69525U 26133T   26188.75003471  .00009685  00000+0  18210-3 0  9996
2 69525  53.1603 219.3623 0001141  29.5329  14.0382 15.49289588  5226
STARLINK-37438          
1 69526U 26133U   26188.75003471 -.00008054  00000+0 -13687-3 0  9991
2 69526  53.1597 219.9863 0000923  54.9951  41.0933 15.49315248  5226
STARLINK-37484          
1 69527U 26133V   26188.75003471  .00012726  00000+0  23687-3 0  9992
2 69527  53.1600 219.2694 0001357 103.9439 345.7468 15.49263608  5224
STARLINK-37523          
1 69528U 26133W   26188.75003471 -.00014533  00000+0 -25363-3 0  9996
2 69528  53.1598 219.7953 0001163  75.2578 114.5584 15.49319896  5226
STARLINK-37369          
1 69529U 26133X   26188.75003471 -.00016508  00000+0 -28921-3 0  9994
2 69529  53.1597 219.7542 0000740  90.5523 118.8585 15.49326126  5222
STARLINK-37670          
1 69530U 26133Y   26188.75003471 -.00012314  00000+0 -21363-3 0  9990
2 69530  53.1596 219.9220 0000858  72.1996  53.7049 15.49318981  5220
STARLINK-37897          
1 69531U 26133Z   26188.75003471  .00002890  00000+0  60047-4 0  9990
2 69531  53.1600 219.2474 0000984  15.5441  82.7273 15.49282052  5171
STARLINK-37933          
1 69532U 26133AA  26188.75003471 -.01806480  00000+0 -45119-1 0  9991
2 69532  53.1593 219.6245 0001089  39.1775 232.3130 15.42757711  5179
STARLINK-37890          
1 69533U 26133AB  26188.75003471 -.02880308  00000+0 -78466-1 0  9995
2 69533  53.1602 219.4851 0001501  55.7900 282.9832 15.40668469  5185
STARLINK-37407          
1 69534U 26133AC  26188.75003471 -.02861835  00000+0 -73538-1 0  9995
2 69534  53.1616 219.3359 0001672  77.4917 334.3720 15.42378744  5220
STARLINK-37888          
1 69535U 26133AD  26188.75003471 -.02910065  00000+0 -81792-1 0  9997
2 69535  53.1603 219.3859 0001639  46.6114 339.4275 15.39770593  5182
