OBJECT_NAME,OBJECT_ID,EPOCH,MEAN_MOTION,ECCENTRICITY,INCLINATION,RA_OF_ASC_NODE,ARG_OF_PERICENTER,MEAN_ANOMALY,EPHEMERIS_TYPE,CLASSIFICATION_TYPE,NORAD_CAT_ID,ELEMENT_SET_NO,REV_AT_EPOCH,BSTAR,MEAN_MOTION_DOT,MEAN_MOTION_DDOT
VERTECS,2026-132E,2026-07-07T16:22:44.518080,15.00974254,.0014861,97.6836,252.1560,231.7159,128.2729,0,U,69506,999,384,.11087E-3,.1356E-4,0
HORN-R,2026-132F,2026-07-06T17:15:09.012384,15.05152725,.00195443,97.6691,251.2744,230.1940,129.7567,0,U,69507,999,370,.11331909E-3,.1557E-4,0
STARLINK-37536,2026-133A,2026-07-07T18:00:02.998944,15.49350702,.0001018,53.1597,220.4514,67.8117,164.5166,0,U,69508,999,528,-.34685E-4,-.238E-4,0
STARLINK-37341,2026-133B,2026-07-07T18:00:02.998944,15.49291890,.0001715,53.1597,220.4719,94.6372,127.5295,0,U,69509,999,528,-.20724E-3,-.1195E-3,0
STARLINK-36536,2026-133C,2026-07-07T18:00:02.998944,15.51130980,.000135,53.1598,219.7261,58.4785,172.1047,0,U,69510,999,522,-.4782E-1,-.2515118E-1,0
STARLINK-37420,2026-133D,2026-07-07T18:00:02.998944,15.55764696,.0000896,53.1603,219.4947,85.8344,258.0110,0,U,69511,999,517,-.2724E-1,-.1710365E-1,0
STARLINK-37511,2026-133E,2026-07-07T18:00:02.998944,15.53589059,.0001481,53.1601,219.5119,74.8802,260.9423,0,U,69512,999,517,-.37284E-1,-.2143704E-1,0
STARLINK-37552,2026-133F,2026-07-07T13:56:08.952288,15.49357053,.0000695,53.1595,221.2729,237.9052,122.1889,0,U,69513,999,524,.59002E-3,.32559E-3,0
STARLINK-37607,2026-133G,2026-07-07T18:00:02.998944,15.49613468,.0001936,53.1600,219.5455,70.5508,248.1368,0,U,69514,999,517,-.9586E-2,-.505968E-2,0
STARLINK-37232,2026-133H,2026-07-07T18:00:02.998944,15.49312730,.0001144,53.1601,220.1808,91.7290,271.8146,0,U,69515,999,517,-.17256E-3,-.10034E-3,0
STARLINK-37323,2026-133J,2026-07-07T18:00:02.998944,15.54505838,.0001073,53.1603,219.3440,47.2819,8.4571,0,U,69516,999,517,-.42587E-1,-.253116E-1,0
STARLINK-37357,2026-133K,2026-07-07T03:04:54.909120,15.49335302,.00008951,53.1588,223.4215,100.0723,260.0387,0,U,69517,999,516,.62769551E-3,.34649E-3,0
STARLINK-37408,2026-133L,2026-07-07T18:00:02.998944,15.49321729,.0001246,53.1598,219.7142,34.6304,199.1939,0,U,69518,999,517,-.21551E-3,-.12421E-3,0
STARLINK-37570,2026-133M,2026-07-07T18:00:02.998944,15.49314222,.000103,53.1601,220.2073,85.1999,263.4856,0,U,69519,999,517,-.194E-3,-.11224E-3,0
STARLINK-37510,2026-133N,2026-07-07T18:00:02.998944,15.49312520,.0000617,53.1601,220.1563,99.5015,275.1480,0,U,69520,999,517,-.14852E-3,-.8699E-4,0
STARLINK-37586,2026-133P,2026-07-07T18:00:02.998944,15.53301964,.0001209,53.1597,219.2153,61.9473,55.8454,0,U,69521,999,517,-.46417E-1,-.2626538E-1,0
STARLINK-37379,2026-133Q,2026-07-07T18:00:02.998944,15.49325266,.0001786,53.1597,219.8463,78.8584,87.7957,0,U,69522,999,522,-.23437E-3,-.13469E-3,0
STARLINK-37429,2026-133R,2026-07-07T00:00:02.999808,15.49310165,.00013506,53.1597,223.8533,62.6652,29.5785,0,U,69523,999,510,.14059603E-2,.78539E-3,0
STARLINK-37352,2026-133S,2026-07-07T18:00:02.998944,15.49319523,.0001147,53.1597,219.8291,79.6102,94.7963,0,U,69524,999,522,-.276E-3,-.15773E-3,0
STARLINK-37490,2026-133T,2026-07-07T18:00:02.998944,15.49289588,.0001141,53.1603,219.3623,29.5329,14.0382,0,U,69525,999,522,.1821E-3,.9685E-4,0
STARLINK-37438,2026-133U,2026-07-07T18:00:02.998944,15.49315248,.0000923,53.1597,219.9863,54.9951,41.0933,0,U,69526,999,522,-.13687E-3,-.8054E-4,0
STARLINK-37484,2026-133V,2026-07-07T18:00:02.998944,15.49263608,.0001357,53.1600,219.2694,103.9439,345.7468,0,U,69527,999,522,.23687E-3,.12726E-3,0
STARLINK-37523,2026-133W,2026-07-07T18:00:02.998944,15.49319896,.0001163,53.1598,219.7953,75.2578,114.5584,0,U,69528,999,522,-.25363E-3,-.14533E-3,0
STARLINK-37369,2026-133X,2026-07-07T18:00:02.998944,15.49326126,.000074,53.1597,219.7542,90.5523,118.8585,0,U,69529,999,522,-.28921E-3,-.16508E-3,0
STARLINK-37670,2026-133Y,2026-07-07T18:00:02.998944,15.49318981,.0000858,53.1596,219.9220,72.1996,53.7049,0,U,69530,999,522,-.21363E-3,-.12314E-3,0
STARLINK-37897,2026-133Z,2026-07-07T18:00:02.998944,15.49282052,.0000984,53.1600,219.2474,15.5441,82.7273,0,U,69531,999,517,.60047E-4,.289E-4,0
STARLINK-37933,2026-133AA,2026-07-07T18:00:02.998944,15.42757711,.0001089,53.1593,219.6245,39.1775,232.3130,0,U,69532,999,517,-.45119E-1,-.180648E-1,0
STARLINK-37890,2026-133AB,2026-07-07T18:00:02.998944,15.40668469,.0001501,53.1602,219.4851,55.7900,282.9832,0,U,69533,999,518,-.78466E-1,-.2880308E-1,0
STARLINK-37407,2026-133AC,2026-07-07T18:00:02.998944,15.42378744,.0001672,53.1616,219.3359,77.4917,334.3720,0,U,69534,999,522,-.73538E-1,-.2861835E-1,0
STARLINK-37888,2026-133AD,2026-07-07T18:00:02.998944,15.39770593,.0001639,53.1603,219.3859,46.6114,339.4275,0,U,69535,999,518,-.81792E-1,-.2910065E-1,0
